start=new Date('2023-04-18T00:00:00.000Z').valueOf();
sats=[{"SITE":"AFETR","OBJECT_TYPE":"PAYLOAD","NORAD_CAT_ID":"46567","REF_FRAME":"TEME","OBJECT_NAME":"STARLINK-1741","GP_ID":"230261840","FILE":"3889391","DECAY_DATE":null,"RA_OF_ASC_NODE":"221.7208","BSTAR":"0.00304050000000","OBJECT_ID":"2020-070AM","MEAN_ELEMENT_THEORY":"SGP4","TIME_SYSTEM":"UTC","COUNTRY_CODE":"US","PERIAPSIS":"546.259","ECCENTRICITY":"0.00012240","MEAN_ANOMALY":"257.5626","CLASSIFICATION_TYPE":"U","ELEMENT_SET_NO":"999","SEMIMAJOR_AXIS":"6925.241","EPHEMERIS_TYPE":"0","EPOCH":"2023-04-17T16:18:59.010624","MEAN_MOTION_DDOT":"0.0000000000000","INCLINATION":"53.0535","LAUNCH_DATE":"2020-10-06","ARG_OF_PERICENTER":"102.5500","REV_AT_EPOCH":"14047","PERIOD":"95.590","RCS_SIZE":"LARGE","TLE_LINE1":"1 46567U 20070AM  23107.67984966  .00045342  00000-0  30405-2 0  9997","MEAN_MOTION_DOT":"0.00045342","TLE_LINE2":"2 46567  53.0535 221.7208 0001224 102.5500 257.5626 15.06435021140471","APOAPSIS":"547.954","MEAN_MOTION":"15.06435021","CENTER_NAME":"EARTH"},{"FILE":"3889391","GP_ID":"230261090","OBJECT_NAME":"STARLINK-1747","REF_FRAME":"TEME","NORAD_CAT_ID":"46569","SITE":"AFETR","OBJECT_TYPE":"PAYLOAD","DECAY_DATE":null,"RA_OF_ASC_NODE":"221.0512","TIME_SYSTEM":"UTC","COUNTRY_CODE":"US","MEAN_ELEMENT_THEORY":"SGP4","OBJECT_ID":"2020-070AP","BSTAR":"0.00306470000000","MEAN_ANOMALY":"266.6550","ECCENTRICITY":"0.00012880","PERIAPSIS":"546.150","EPHEMERIS_TYPE":"0","SEMIMAJOR_AXIS":"6925.177","ELEMENT_SET_NO":"999","CLASSIFICATION_TYPE":"U","PERIOD":"95.589","RCS_SIZE":"LARGE","REV_AT_EPOCH":"14049","ARG_OF_PERICENTER":"93.4586","LAUNCH_DATE":"2020-10-06","INCLINATION":"53.0532","MEAN_MOTION_DDOT":"0.0000000000000","EPOCH":"2023-04-17T19:51:18.642240","MEAN_MOTION_DOT":"0.00045734","TLE_LINE1":"1 46569U 20070AP  23107.82729910  .00045734  00000-0  30647-2 0  9995","CENTER_NAME":"EARTH","MEAN_MOTION":"15.06455987","APOAPSIS":"547.934","TLE_LINE2":"2 46569  53.0532 221.0512 0001288  93.4586 266.6550 15.06455987140495"},{"TLE_LINE1":"1 46570U 20070AQ  23107.64605337  .00019607  00000-0  85779-3 0  9990","MEAN_MOTION_DOT":"0.00019607","APOAPSIS":"501.147","TLE_LINE2":"2 46570  53.0481 206.3463 0002288 231.8648 128.2142 15.22078845140682","MEAN_MOTION":"15.22078845","CENTER_NAME":"EARTH","CLASSIFICATION_TYPE":"U","ELEMENT_SET_NO":"999","EPHEMERIS_TYPE":"0","SEMIMAJOR_AXIS":"6877.708","LAUNCH_DATE":"2020-10-06","INCLINATION":"53.0481","EPOCH":"2023-04-17T15:30:19.011168","MEAN_MOTION_DDOT":"0.0000000000000","REV_AT_EPOCH":"14068","ARG_OF_PERICENTER":"231.8648","RCS_SIZE":"LARGE","PERIOD":"94.607","OBJECT_ID":"2020-070AQ","BSTAR":"0.00085779000000","TIME_SYSTEM":"UTC","COUNTRY_CODE":"US","MEAN_ELEMENT_THEORY":"SGP4","PERIAPSIS":"498.000","ECCENTRICITY":"0.00022880","MEAN_ANOMALY":"128.2142","OBJECT_TYPE":"PAYLOAD","SITE":"AFETR","REF_FRAME":"TEME","NORAD_CAT_ID":"46570","OBJECT_NAME":"STARLINK-1748","GP_ID":"230261340","FILE":"3889391","DECAY_DATE":null,"RA_OF_ASC_NODE":"206.3463"},{"RCS_SIZE":"LARGE","PERIOD":"95.591","ARG_OF_PERICENTER":"76.0378","REV_AT_EPOCH":"14021","MEAN_MOTION_DDOT":"0.0000000000000","EPOCH":"2023-04-17T20:45:39.255552","INCLINATION":"53.0521","LAUNCH_DATE":"2020-10-06","SEMIMAJOR_AXIS":"6925.316","EPHEMERIS_TYPE":"0","ELEMENT_SET_NO":"999","CLASSIFICATION_TYPE":"U","CENTER_NAME":"EARTH","MEAN_MOTION":"15.06410752","APOAPSIS":"548.062","TLE_LINE2":"2 46572  53.0521 240.8778 0001272  76.0378 284.0752 15.06410752140218","MEAN_MOTION_DOT":"0.00043949","TLE_LINE1":"1 46572U 20070AS  23107.86503768  .00043949  00000-0  29502-2 0  9998","DECAY_DATE":null,"RA_OF_ASC_NODE":"240.8778","GP_ID":"230261591","FILE":"3889391","OBJECT_NAME":"STARLINK-1531","NORAD_CAT_ID":"46572","REF_FRAME":"TEME","SITE":"AFETR","OBJECT_TYPE":"PAYLOAD","MEAN_ANOMALY":"284.0752","PERIAPSIS":"546.300","ECCENTRICITY":"0.00012720","MEAN_ELEMENT_THEORY":"SGP4","COUNTRY_CODE":"US","TIME_SYSTEM":"UTC","BSTAR":"0.00295020000000","OBJECT_ID":"2020-070AS"},{"REF_FRAME":"TEME","NORAD_CAT_ID":"46573","OBJECT_TYPE":"PAYLOAD","SITE":"AFETR","GP_ID":"230262340","FILE":"3889391","OBJECT_NAME":"STARLINK-1650","RA_OF_ASC_NODE":"178.6484","DECAY_DATE":null,"OBJECT_ID":"2020-070AT","BSTAR":"0.00127680000000","COUNTRY_CODE":"US","TIME_SYSTEM":"UTC","MEAN_ELEMENT_THEORY":"SGP4","PERIAPSIS":"341.363","ECCENTRICITY":"0.00078850","MEAN_ANOMALY":"110.5886","ELEMENT_SET_NO":"999","CLASSIFICATION_TYPE":"U","EPHEMERIS_TYPE":"0","SEMIMAJOR_AXIS":"6724.801","ARG_OF_PERICENTER":"352.1664","REV_AT_EPOCH":"130","LAUNCH_DATE":"2020-10-06","INCLINATION":"53.0454","MEAN_MOTION_DDOT":"0.0000000000000","EPOCH":"2023-04-17T22:00:00.999936","RCS_SIZE":"LARGE","PERIOD":"91.470","TLE_LINE1":"1 46573U 20070AT  23107.91667824  .00191781  00000-0  12768-2 0  9993","MEAN_MOTION_DOT":"0.00191781","MEAN_MOTION":"15.74285979","TLE_LINE2":"2 46573  53.0454 178.6484 0007885 352.1664 110.5886 15.74285979  1301","APOAPSIS":"351.968","CENTER_NAME":"EARTH"},{"ELEMENT_SET_NO":"999","CLASSIFICATION_TYPE":"U","EPHEMERIS_TYPE":"0","SEMIMAJOR_AXIS":"6925.399","ARG_OF_PERICENTER":"84.3441","REV_AT_EPOCH":"14038","LAUNCH_DATE":"2020-10-06","INCLINATION":"53.0540","EPOCH":"2023-04-17T13:31:09.394752","MEAN_MOTION_DDOT":"0.0000000000000","RCS_SIZE":"LARGE","PERIOD":"95.593","TLE_LINE1":"1 46574U 20070AU  23107.56330318  .00044025  00000-0  29574-2 0  9991","MEAN_MOTION_DOT":"0.00044025","MEAN_MOTION":"15.06383476","TLE_LINE2":"2 46574  53.0540 227.2417 0001325  84.3441 275.7699 15.06383476140389","APOAPSIS":"548.182","CENTER_NAME":"EARTH","REF_FRAME":"TEME","NORAD_CAT_ID":"46574","SITE":"AFETR","OBJECT_TYPE":"PAYLOAD","GP_ID":"230230946","FILE":"3889215","OBJECT_NAME":"STARLINK-1660","DECAY_DATE":null,"RA_OF_ASC_NODE":"227.2417","OBJECT_ID":"2020-070AU","BSTAR":"0.00295740000000","TIME_SYSTEM":"UTC","COUNTRY_CODE":"US","MEAN_ELEMENT_THEORY":"SGP4","ECCENTRICITY":"0.00013250","PERIAPSIS":"546.347","MEAN_ANOMALY":"275.7699"},{"MEAN_MOTION_DOT":"0.00043908","TLE_LINE1":"1 46575U 20070AV  23107.68539411  .00043908  00000-0  29445-2 0  9996","CENTER_NAME":"EARTH","TLE_LINE2":"2 46575  53.0528 201.6945 0001340  97.2614 262.8527 15.06448009140741","APOAPSIS":"547.994","MEAN_MOTION":"15.06448009","EPHEMERIS_TYPE":"0","SEMIMAJOR_AXIS":"6925.201","CLASSIFICATION_TYPE":"U","ELEMENT_SET_NO":"999","RCS_SIZE":"LARGE","PERIOD":"95.589","LAUNCH_DATE":"2020-10-06","INCLINATION":"53.0528","EPOCH":"2023-04-17T16:26:58.051104","MEAN_MOTION_DDOT":"0.0000000000000","ARG_OF_PERICENTER":"97.2614","REV_AT_EPOCH":"14074","TIME_SYSTEM":"UTC","COUNTRY_CODE":"US","MEAN_ELEMENT_THEORY":"SGP4","OBJECT_ID":"2020-070AV","BSTAR":"0.00294450000000","MEAN_ANOMALY":"262.8527","ECCENTRICITY":"0.00013400","PERIAPSIS":"546.138","OBJECT_NAME":"STARLINK-1675","GP_ID":"230260840","FILE":"3889391","OBJECT_TYPE":"PAYLOAD","SITE":"AFETR","REF_FRAME":"TEME","NORAD_CAT_ID":"46575","DECAY_DATE":null,"RA_OF_ASC_NODE":"201.6945"},{"GP_ID":"230229951","FILE":"3889215","OBJECT_NAME":"STARLINK-1677","REF_FRAME":"TEME","NORAD_CAT_ID":"46576","OBJECT_TYPE":"PAYLOAD","SITE":"AFETR","DECAY_DATE":null,"RA_OF_ASC_NODE":"227.2745","TIME_SYSTEM":"UTC","COUNTRY_CODE":"US","MEAN_ELEMENT_THEORY":"SGP4","OBJECT_ID":"2020-070AW","BSTAR":"0.00301510000000","MEAN_ANOMALY":"288.4779","ECCENTRICITY":"0.00014200","PERIAPSIS":"546.246","EPHEMERIS_TYPE":"0","SEMIMAJOR_AXIS":"6925.364","ELEMENT_SET_NO":"999","CLASSIFICATION_TYPE":"U","PERIOD":"95.592","RCS_SIZE":"LARGE","REV_AT_EPOCH":"14038","ARG_OF_PERICENTER":"71.6365","LAUNCH_DATE":"2020-10-06","INCLINATION":"53.0544","MEAN_MOTION_DDOT":"0.0000000000000","EPOCH":"2023-04-17T13:20:32.054784","MEAN_MOTION_DOT":"0.00044909","TLE_LINE1":"1 46576U 20070AW  23107.55592656  .00044909  00000-0  30151-2 0  9991","CENTER_NAME":"EARTH","MEAN_MOTION":"15.06394833","TLE_LINE2":"2 46576  53.0544 227.2745 0001420  71.6365 288.4779 15.06394833140388","APOAPSIS":"548.213"},{"PERIOD":"95.589","RCS_SIZE":"LARGE","INCLINATION":"53.0543","LAUNCH_DATE":"2020-10-06","EPOCH":"2023-04-17T20:25:08.663808","MEAN_MOTION_DDOT":"0.0000000000000","ARG_OF_PERICENTER":"103.1873","REV_AT_EPOCH":"14042","EPHEMERIS_TYPE":"0","SEMIMAJOR_AXIS":"6925.218","CLASSIFICATION_TYPE":"U","ELEMENT_SET_NO":"999","CENTER_NAME":"EARTH","TLE_LINE2":"2 46577  53.0543 225.9543 0001169 103.1873 256.9246 15.06442738140426","APOAPSIS":"547.892","MEAN_MOTION":"15.06442738","MEAN_MOTION_DOT":"0.00033245","TLE_LINE1":"1 46577U 20070AX  23107.85079472  .00033245  00000-0  22377-2 0  9993","DECAY_DATE":null,"RA_OF_ASC_NODE":"225.9543","OBJECT_NAME":"STARLINK-1682","FILE":"3889391","GP_ID":"230261841","SITE":"AFETR","OBJECT_TYPE":"PAYLOAD","REF_FRAME":"TEME","NORAD_CAT_ID":"46577","MEAN_ANOMALY":"256.9246","PERIAPSIS":"546.273","ECCENTRICITY":"0.00011690","COUNTRY_CODE":"US","TIME_SYSTEM":"UTC","MEAN_ELEMENT_THEORY":"SGP4","OBJECT_ID":"2020-070AX","BSTAR":"0.00223770000000"},{"ECCENTRICITY":"0.00012820","PERIAPSIS":"546.232","MEAN_ANOMALY":"257.2137","OBJECT_ID":"2020-070AY","BSTAR":"0.00302070000000","TIME_SYSTEM":"UTC","COUNTRY_CODE":"US","MEAN_ELEMENT_THEORY":"SGP4","RA_OF_ASC_NODE":"211.6815","DECAY_DATE":null,"REF_FRAME":"TEME","NORAD_CAT_ID":"46578","SITE":"AFETR","OBJECT_TYPE":"PAYLOAD","GP_ID":"230261091","FILE":"3889391","OBJECT_NAME":"STARLINK-1683","MEAN_MOTION":"15.06430551","APOAPSIS":"548.008","TLE_LINE2":"2 46578  53.0531 211.6815 0001282 102.8995 257.2137 15.06430551140619","CENTER_NAME":"EARTH","TLE_LINE1":"1 46578U 20070AY  23107.69923076  .00045037  00000-0  30207-2 0  9997","MEAN_MOTION_DOT":"0.00045037","REV_AT_EPOCH":"14061","ARG_OF_PERICENTER":"102.8995","LAUNCH_DATE":"2020-10-06","INCLINATION":"53.0531","EPOCH":"2023-04-17T16:46:53.537664","MEAN_MOTION_DDOT":"0.0000000000000","RCS_SIZE":"LARGE","PERIOD":"95.590","ELEMENT_SET_NO":"999","CLASSIFICATION_TYPE":"U","EPHEMERIS_TYPE":"0","SEMIMAJOR_AXIS":"6925.255"}];
